{
    "type": "FeatureCollection",
    "features": [
        {
            "type": "Feature",
            "properties": {
                "name": "GA NORTH"
            },
            "geometry": {
                "type": "Polygon",
                "coordinates": [
                    [
                        [-0.260913948369199, 5.68036443424894],
                        [-0.260130528645159, 5.67866373980928],
                        [-0.259033412175647, 5.6706564143813],
                        [-0.258786170237817, 5.6671281680999],
                        [-0.258402857940251, 5.66598776731455],
                        [-0.257354161880757, 5.66479815092993],
                        [-0.257177018360251, 5.66327820993997],
                        [-0.257452335058934, 5.66302300285256],
                        [-0.257621366198622, 5.66254165685246],
                        [-0.257788022246751, 5.66074712678081],
                        [-0.258658678219902, 5.65942366926408],
                        [-0.259056327273689, 5.65727570235541],
                        [-0.258821459245545, 5.65701273873711],
                        [-0.258785533367874, 5.65649740034364],
                        [-0.258219569301606, 5.65585724489104],
                        [-0.258304946028472, 5.65569285342893],
                        [-0.257751049916413, 5.65499037318205],
                        [-0.25725057478439, 5.65375878879437],
                        [-0.256723443681151, 5.65312870124168],
                        [-0.253135493919136, 5.65066959430644],
                        [-0.252517305413413, 5.6500057011347],
                        [-0.251563870028887, 5.64968380218424],
                        [-0.251755068509495, 5.64897346538564],
                        [-0.262319772671364, 5.65556843622103],
                        [-0.2691258428076, 5.66051732220759],
                        [-0.270047978695792, 5.66134412270248],
                        [-0.27063572385798, 5.66222672806887],
                        [-0.270970682917364, 5.66408361325886],
                        [-0.270546257805483, 5.6670462774426],
                        [-0.273049417397298, 5.67789798063812],
                        [-0.272208245167649, 5.67802607966197],
                        [-0.27207527123598, 5.67762155679119],
                        [-0.26967470992267, 5.67752450638092],
                        [-0.26965389449237, 5.67813119894783],
                        [-0.26886207150856, 5.67779150095655],
                        [-0.268502762452796, 5.67820693918995],
                        [-0.268100879081349, 5.6777378626882],
                        [-0.267749575606546, 5.67781342976562],
                        [-0.267674343958651, 5.67840548953077],
                        [-0.264961179602914, 5.67763285213697],
                        [-0.264548168950873, 5.6800421895131],
                        [-0.263517188655522, 5.68002570465657],
                        [-0.263487683592753, 5.68054715034717],
                        [-0.260913948369199, 5.68036443424894]
                    ]
                ]
            }
        }
    ]
}